*******************************************************************************
JPL/HORIZONS               568 Cheruskia (A905 OD)         2020-Jun-22 09:14:29
Rec #:     568 (+COV) Soln.date: 2020-May-20_01:08:27   # obs: 2754 (1907-2020)
 
IAU76/J2000 helio. ecliptic osc. elements (au, days, deg., period=Julian yrs):
 
  EPOCH=  2456015.5 ! 2012-Mar-29.00 (TDB)         Residual RMS= .24974
   EC= .1663529734950899   QR= 2.404024938299209   TP= 2456786.0696670436
   OM= 249.9001206702236   W=  174.3548907350649   IN= 18.39272648276545
   A= 2.88374439284952     MA= 204.9110561104079   ADIST= 3.36346384739983
   PER= 4.89715            N= .201265306           ANGMOM= .02880487
   DAN= 3.36021            DDN= 2.40569            L= 64.5416622
   B= 1.778597             MOID= 1.41723001        TP= 2014-May-08.5696670436
 
Asteroid physical parameters (km, seconds, rotational period in hours):
   GM= n.a.                RAD= 35.612             ROTPER= 13.209
   H= 9.6                  G= .150                 B-V= n.a.
                           ALBEDO= .056            STYP= n.a.
 
ASTEROID comments: 
1: soln ref.= JPL#74, OCC=0
2: source=ORB
*******************************************************************************
 
 
*******************************************************************************
Ephemeris / WWW_USER Mon Jun 22 09:14:29 2020 Pasadena, USA      / Horizons
*******************************************************************************
Target body name: 568 Cheruskia (A905 OD)         {source: JPL#74}
Center body name: Solar System Barycenter (0)     {source: DE431}
Center-site name: BODY CENTER
*******************************************************************************
Start time      : A.D. 1969-Jun-28 00:00:00.0000 TDB
Stop  time      : A.D. 2071-May-04 00:00:00.0000 TDB
Step-size       : 7200 minutes
*******************************************************************************
Center geodetic : 0.00000000,0.00000000,0.0000000 {E-lon(deg),Lat(deg),Alt(km)}
Center cylindric: 0.00000000,0.00000000,0.0000000 {E-lon(deg),Dxy(km),Dz(km)}
Center radii    : (undefined)                                                  
Small perturbers: Yes                             {source: SB431-N16}
Output units    : AU-D
Output type     : GEOMETRIC cartesian states
Output format   : 2 (position and velocity)
Reference frame : Ecliptic of J2000.0
*******************************************************************************
Initial IAU76/J2000 heliocentric ecliptic osculating elements (au, days, deg.):
  EPOCH=  2456015.5 ! 2012-Mar-29.00 (TDB)         Residual RMS= .24974        
   EC= .1663529734950899   QR= 2.404024938299209   TP= 2456786.0696670436      
   OM= 249.9001206702236   W=  174.3548907350649   IN= 18.39272648276545       
  Equivalent ICRF heliocentric equatorial cartesian coordinates (au, au/d):
   X=-4.732923494713537E-01  Y=-3.107929432175228E+00  Z=-1.098944654760594E+00
  VX= 8.244695865100763E-03 VY=-1.471398310415551E-03 VZ= 2.225991132205491E-03
Asteroid physical parameters (km, seconds, rotational period in hours):        
   GM= n.a.                RAD= 35.612             ROTPER= 13.209              
   H= 9.6                  G= .150                 B-V= n.a.                   
                           ALBEDO= .056            STYP= n.a.                  
*******************************************************************************
            JDTDB,            Calendar Date (TDB),        delta-T,                      X,                      Y,                      Z,                     VX,                     VY,                     VZ,
******************************************************************************************************************************************************************************************************************
$$SOE
2469940.500000000, A.D. 2050-May-14 00:00:00.0000,      69.185271, -2.802660854130605E+00, -1.427002855462360E+00, -7.052331510537102E-01,  2.596481838713242E-03, -8.421581021599144E-03,  1.793754760685976E-03,
2469945.500000000, A.D. 2050-May-19 00:00:00.0000,      69.185180, -2.789369660674012E+00, -1.468952058828455E+00, -6.961869122320492E-01,  2.719796195096548E-03, -8.357844672925845E-03,  1.824648775676607E-03,
2469950.500000000, A.D. 2050-May-24 00:00:00.0000,      69.185080, -2.775464891072146E+00, -1.510578766152483E+00, -6.869875824972310E-01,  2.841911225419656E-03, -8.292586685845305E-03,  1.854991271678206E-03,
2469955.500000000, A.D. 2050-May-29 00:00:00.0000,      69.184972, -2.760952557794505E+00, -1.551875430087043E+00, -6.776379172298391E-01,  2.962820639810182E-03, -8.225831324145659E-03,  1.884783139966794E-03,
2469960.500000000, A.D. 2050-Jun-03 00:00:00.0000,      69.184856, -2.745838704086791E+00, -1.592834623498346E+00, -6.681406672748856E-01,  3.082518414886757E-03, -8.157602410619229E-03,  1.914025302745084E-03,
2469965.500000000, A.D. 2050-Jun-08 00:00:00.0000,      69.184733, -2.730129402679661E+00, -1.633449037278361E+00, -6.584985787982681E-01,  3.200998777350634E-03, -8.087923333927589E-03,  1.942718708738717E-03,
2469970.500000000, A.D. 2050-Jun-13 00:00:00.0000,      69.184606, -2.713830754578360E+00, -1.673711478191434E+00, -6.487143931647367E-01,  3.318256188056161E-03, -8.016817055512404E-03,  1.970864329000562E-03,
2469975.500000000, A.D. 2050-Jun-18 00:00:00.0000,      69.184476, -2.696948887930671E+00, -1.713614866755434E+00, -6.387908468362550E-01,  3.434285326616974E-03, -7.944306116484307E-03,  1.998463152955281E-03,
2469980.500000000, A.D. 2050-Jun-23 00:00:00.0000,      69.184343, -2.679489956970277E+00, -1.753152235157236E+00, -6.287306712894759E-01,  3.549081076654261E-03, -7.870412644479029E-03,  2.025516184707733E-03,
2469985.500000000, A.D. 2050-Jun-28 00:00:00.0000,      69.184207, -2.661460141032282E+00, -1.792316725202596E+00, -6.185365929510900E-01,  3.662638511672887E-03, -7.795158360579880E-03,  2.052024439575491E-03,
2469990.500000000, A.D. 2050-Jul-03 00:00:00.0000,      69.184068, -2.642865643638034E+00, -1.831101586301015E+00, -6.082113331500846E-01,  3.774952881433038E-03, -7.718564586391423E-03,  2.077988940783114E-03,
2469995.500000000, A.D. 2050-Jul-08 00:00:00.0000,      69.183928, -2.623712691647018E+00, -1.869500173486230E+00, -5.977576080861401E-01,  3.886019598764954E-03, -7.640652251196551E-03,  2.103410716322131E-03,
2470000.500000000, A.D. 2050-Jul-13 00:00:00.0000,      69.183790, -2.604007534473354E+00, -1.907505945472520E+00, -5.871781288132302E-01,  3.995834226926676E-03, -7.561441899127061E-03,  2.128290796009354E-03,
2470005.500000000, A.D. 2050-Jul-18 00:00:00.0000,      69.183655, -2.583756443364015E+00, -1.945112462746987E+00, -5.764756012374723E-01,  4.104392467557547E-03, -7.480953696396666E-03,  2.152630208721215E-03,
2470010.500000000, A.D. 2050-Jul-23 00:00:00.0000,      69.183522, -2.562965710735921E+00, -1.982313385698353E+00, -5.656527261284940E-01,  4.211690149159448E-03, -7.399207438687093E-03,  2.176429979740910E-03,
2470015.500000000, A.D. 2050-Jul-28 00:00:00.0000,      69.183392, -2.541641649569553E+00, -2.019102472783195E+00, -5.547121991439120E-01,  4.317723215977547E-03, -7.316222558741253E-03,  2.199691128158681E-03,
2470020.500000000, A.D. 2050-Aug-02 00:00:00.0000,      69.183265, -2.519790592857454E+00, -2.055473578730651E+00, -5.436567108667464E-01,  4.422487717150854E-03, -7.232018134152644E-03,  2.222414664295526E-03,
2470025.500000000, A.D. 2050-Aug-07 00:00:00.0000,      69.183142, -2.497418893106485E+00, -2.091420652786437E+00, -5.324889468556468E-01,  4.525979796050560E-03, -7.146612895284433E-03,  2.244601587158009E-03,
2470030.500000000, A.D. 2050-Aug-12 00:00:00.0000,      69.183027, -2.474532921892960E+00, -2.126937736996595E+00, -5.212115877077058E-01,  4.628195679791869E-03, -7.060025233232076E-03,  2.266252881956873E-03,
2470035.500000000, A.D. 2050-Aug-17 00:00:00.0000,      69.182920, -2.451139069469718E+00, -2.162018964531030E+00, -5.098273091334374E-01,  4.729131668956113E-03, -6.972273207762383E-03,  2.287369517725185E-03,
2470040.500000000, A.D. 2050-Aug-22 00:00:00.0000,      69.182821, -2.427243744423957E+00, -2.196658558046594E+00, -4.983387820433682E-01,  4.828784127574569E-03, -6.883374555197471E-03,  2.307952445058962E-03,
2470045.500000000, A.D. 2050-Aug-27 00:00:00.0000,      69.182730, -2.402853373384401E+00, -2.230850828089453E+00, -4.867486726456021E-01,  4.927149473411972E-03, -6.793346696240262E-03,  2.328002593987341E-03,
2470050.500000000, A.D. 2050-Sep-01 00:00:00.0000,      69.182646, -2.377974400776268E+00, -2.264590171536448E+00, -4.750596425537142E-01,  5.024224168565137E-03, -6.702206743750197E-03,  2.347520871968611E-03,
2470055.500000000, A.D. 2050-Sep-06 00:00:00.0000,      69.182571, -2.352613288622456E+00, -2.297871070075223E+00, -4.632743489043660E-01,  5.120004710375502E-03, -6.609971510473576E-03,  2.366508162005275E-03,
2470060.500000000, A.D. 2050-Sep-11 00:00:00.0000,      69.182508, -2.326776516389387E+00, -2.330688088722862E+00, -4.513954444840544E-01,  5.214487622660408E-03, -6.516657516709960E-03,  2.384965320876482E-03,
2470065.500000000, A.D. 2050-Sep-16 00:00:00.0000,      69.182458, -2.300470580875823E+00, -2.363035874382641E+00, -4.394255778644003E-01,  5.307669447295630E-03, -6.422280997890778E-03,  2.402893177487780E-03,
2470070.500000000, A.D. 2050-Sep-21 00:00:00.0000,      69.182418, -2.273701996142767E+00, -2.394909154438472E+00, -4.273673935454183E-01,  5.399546736207821E-03, -6.326857912097322E-03,  2.420292531324277E-03,
2470075.500000000, A.D. 2050-Sep-26 00:00:00.0000,      69.182389, -2.246477293482498E+00, -2.426302735387088E+00, -4.152235321063616E-01,  5.490116043696220E-03, -6.230403947654592E-03,  2.437164150958581E-03,
